ONEWEB-0226             
1 48793U 21045AC  24017.62226396  .00000038  00000+0  67358-4 0  9996
2 48793  87.8975  74.6923 0002300 111.9129 248.2245 13.15550792128441
ONEWEB-0224             
1 48794U 21045AD  24018.19429308 -.00000005  00000+0 -46151-4 0  9992
2 48794  87.8977  74.5934 0002588  90.1188 270.0239 13.15546733129566
ONEWEB-0233             
1 48795U 21045AE  24018.19033336 -.00000060  00000+0 -19386-3 0  9995
2 48795  87.8975  74.6073 0001962 106.3558 253.7788 13.15548497129573
ONEWEB-0190             
1 48796U 21045AF  24018.18636844 -.00000084  00000+0 -25711-3 0  9993
2 48796  87.8969  74.5702 0003009 107.2374 252.9086 13.15547777129656
ONEWEB-0236             
1 48797U 21045AG  24018.20380135  .00000116  00000+0  27473-3 0  9997
2 48797  87.8981  74.5542 0001978  99.4132 260.7222 13.15548567129545
ONEWEB-0248             
1 48798U 21045AH  24017.68407155  .00000188  00000+0  46542-3 0  9998
2 48798  87.8973  74.6622 0002635  92.6830 267.4602 13.15546825128515
ONEWEB-0225             
1 48799U 21045AJ  24018.16259796  .00000079  00000+0  17443-3 0  9996
2 48799  87.8967  74.5720 0002368 100.8432 259.2965 13.15548663129727
ONEWEB-0215             
1 48800U 21045AK  24018.13248228  .00000205  00000+0  51023-3 0  9997
2 48800  87.8972  74.5599 0002834  99.0803 261.0648 13.15550425129570
